{
"type": "FeatureCollection",
"name": "passes",
"crs": { "type": "name", "properties": { "name": "urn:ogc:def:crs:OGC:1.3:CRS84" } },
"features": [
{ "type": "Feature", "properties": { "edge_id": 43479, "pairs_served": 119, "pass_elev_m": 77.699623107910156, "neighborhoods_separated": "Bayview; Castro/Upper Market; Chinatown; Downtown/Civic Center; Financial District; Golden Gate Park; Inner Richmond; Lakeshore; Marina; Mission; Noe Valley; North Beach; Outer Mission; Outer Richmond; Outer Sunset; Pacific Heights; Parkside; Potrero Hill; Presidio; Presidio Heights; Russian Hill; South of Market; Visitacion Valley; Western Addition", "name": null, "cls": "service", "length_m": 42.193156105651902, "max_abs_grade": 0.046372363405866604, "elev_min": 76.804832458496094, "elev_max": 77.699623107910156, "pass_elev_ft": 254.92003147735596, "neighborhood": "Golden Gate Park" }, "geometry": { "type": "LineString", "coordinates": [ [ -122.4549228, 37.7715899 ], [ -122.4548594, 37.771641 ], [ -122.45477, 37.7716853 ], [ -122.4547304, 37.7717044 ], [ -122.4545246, 37.7717977 ] ] } },
{ "type": "Feature", "properties": { "edge_id": 10802, "pairs_served": 35, "pass_elev_m": 212.24543762207031, "neighborhoods_separated": "Bayview; Bernal Heights; Castro/Upper Market; Chinatown; Crocker Amazon; Diamond Heights; Downtown/Civic Center; Excelsior; Financial District; Glen Park; Golden Gate Park; Haight Ashbury; Inner Richmond; Inner Sunset; Lakeshore; Marina; Mission; Nob Hill; Noe Valley; North Beach; Ocean View; Outer Mission; Outer Richmond; Outer Sunset; Pacific Heights; Parkside; Potrero Hill; Presidio; Presidio Heights; Russian Hill; Seacliff; South of Market; Twin Peaks; Visitacion Valley; West of Twin Peaks; Western Addition", "name": "Lansdale Avenue", "cls": "residential", "length_m": 90.987980445917415, "max_abs_grade": 0.1566046528300534, "elev_min": 200.72442626953125, "elev_max": 212.24543762207031, "pass_elev_ft": 696.34332156799314, "neighborhood": "West of Twin Peaks" }, "geometry": { "type": "LineString", "coordinates": [ [ -122.460333700000021, 37.7378667 ], [ -122.460135400000013, 37.7376168 ], [ -122.4600847, 37.737539 ], [ -122.460046, 37.7374542 ], [ -122.4600206, 37.737367499999984 ], [ -122.4600027, 37.7372793 ], [ -122.4599979, 37.7371856 ], [ -122.4599916, 37.737111 ] ] } },
{ "type": "Feature", "properties": { "edge_id": 44317, "pairs_served": 34, "pass_elev_m": 193.4539794921875, "neighborhoods_separated": "Bayview; Bernal Heights; Castro/Upper Market; Chinatown; Crocker Amazon; Diamond Heights; Downtown/Civic Center; Excelsior; Financial District; Glen Park; Golden Gate Park; Haight Ashbury; Inner Richmond; Inner Sunset; Lakeshore; Marina; Mission; Nob Hill; Noe Valley; North Beach; Ocean View; Outer Mission; Outer Richmond; Outer Sunset; Pacific Heights; Parkside; Potrero Hill; Presidio; Presidio Heights; Russian Hill; Seacliff; South of Market; Twin Peaks; Visitacion Valley; Western Addition", "name": "Panorama Drive", "cls": "tertiary", "length_m": 39.253971429558959, "max_abs_grade": 0.037606291738162732, "elev_min": 192.01741027832031, "elev_max": 193.4539794921875, "pass_elev_ft": 634.69155407714845, "neighborhood": "Twin Peaks" }, "geometry": { "type": "LineString", "coordinates": [ [ -122.4511127, 37.752553 ], [ -122.4510121, 37.7525858 ], [ -122.450906100000012, 37.7526325 ], [ -122.4508284, 37.7526813 ], [ -122.450750600000021, 37.7527502 ] ] } },
{ "type": "Feature", "properties": { "edge_id": 9816, "pairs_served": 33, "pass_elev_m": 155.93820190429688, "neighborhoods_separated": "Bayview; Bernal Heights; Castro/Upper Market; Chinatown; Crocker Amazon; Diamond Heights; Downtown/Civic Center; Excelsior; Financial District; Glen Park; Golden Gate Park; Haight Ashbury; Inner Richmond; Inner Sunset; Lakeshore; Marina; Mission; Nob Hill; Noe Valley; North Beach; Ocean View; Outer Mission; Outer Richmond; Outer Sunset; Pacific Heights; Parkside; Potrero Hill; Presidio; Presidio Heights; Russian Hill; Seacliff; South of Market; Visitacion Valley; Western Addition", "name": null, "cls": "footway", "length_m": 9.2326498611673475, "max_abs_grade": 0.04933305857216122, "elev_min": 155.55513000488281, "elev_max": 155.93820190429688, "pass_elev_ft": 511.60829033569337, "neighborhood": "Ocean View" }, "geometry": { "type": "LineString", "coordinates": [ [ -122.462758300962335, 37.717869810211127 ], [ -122.462653545495741, 37.717869988518295 ] ] } },
{ "type": "Feature", "properties": { "edge_id": 14744, "pairs_served": 32, "pass_elev_m": 154.92292785644531, "neighborhoods_separated": "Bayview; Bernal Heights; Castro/Upper Market; Chinatown; Crocker Amazon; Diamond Heights; Downtown/Civic Center; Excelsior; Financial District; Glen Park; Golden Gate Park; Haight Ashbury; Inner Richmond; Inner Sunset; Lakeshore; Marina; Mission; Nob Hill; Noe Valley; North Beach; Outer Mission; Outer Richmond; Outer Sunset; Pacific Heights; Parkside; Potrero Hill; Presidio; Presidio Heights; Russian Hill; Seacliff; South of Market; Visitacion Valley; Western Addition", "name": "Turquoise Way", "cls": "residential", "length_m": 369.13697572456914, "max_abs_grade": 0.17694759510088218, "elev_min": 138.77243041992188, "elev_max": 154.92292785644531, "pass_elev_ft": 508.27733862854001, "neighborhood": "Diamond Heights" }, "geometry": { "type": "LineString", "coordinates": [ [ -122.445706510632547, 37.744291135189009 ], [ -122.4456731, 37.7441254 ], [ -122.4456471, 37.7440349 ], [ -122.4456141, 37.74396 ], [ -122.44556990000001, 37.7438941 ], [ -122.4455075, 37.743829 ], [ -122.445415600000018, 37.7437679 ], [ -122.4453045, 37.7437181 ], [ -122.4451728, 37.7436729 ], [ -122.4449123, 37.7436039 ], [ -122.4447951, 37.7435638 ], [ -122.444662800000017, 37.7435099 ], [ -122.4445394, 37.7434536 ], [ -122.4443155, 37.7433484 ], [ -122.4442199, 37.7433153 ], [ -122.4441283, 37.7432966 ], [ -122.444018600000021, 37.7432917 ], [ -122.4439187, 37.7433041 ], [ -122.4438212, 37.743332599999988 ], [ -122.4437218, 37.7433738 ], [ -122.442999200000017, 37.74379 ], [ -122.442909, 37.7438501 ], [ -122.4428307, 37.7439162 ], [ -122.442763700000015, 37.7439968 ], [ -122.4427059, 37.744081 ], [ -122.4426633, 37.7441707 ], [ -122.442648594245497, 37.744254478237771 ] ] } },
{ "type": "Feature", "properties": { "edge_id": 17476, "pairs_served": 31, "pass_elev_m": 148.51309204101562, "neighborhoods_separated": "Bayview; Bernal Heights; Castro/Upper Market; Chinatown; Crocker Amazon; Downtown/Civic Center; Excelsior; Financial District; Glen Park; Golden Gate Park; Haight Ashbury; Inner Richmond; Inner Sunset; Lakeshore; Marina; Mission; Nob Hill; Noe Valley; North Beach; Outer Mission; Outer Richmond; Outer Sunset; Pacific Heights; Parkside; Potrero Hill; Presidio; Presidio Heights; Russian Hill; Seacliff; South of Market; Visitacion Valley; Western Addition", "name": "Everson Street", "cls": "residential", "length_m": 14.729944223202873, "max_abs_grade": 0.038047667966271272, "elev_min": 148.07064819335938, "elev_max": 148.51309204101562, "pass_elev_ft": 487.2476928918457, "neighborhood": "Glen Park" }, "geometry": { "type": "LineString", "coordinates": [ [ -122.431343900000016, 37.7383321 ], [ -122.4311895, 37.738383 ] ] } },
{ "type": "Feature", "properties": { "edge_id": 41793, "pairs_served": 30, "pass_elev_m": 117.30906677246094, "neighborhoods_separated": "Bayview; Bernal Heights; Castro/Upper Market; Chinatown; Crocker Amazon; Downtown/Civic Center; Excelsior; Financial District; Golden Gate Park; Haight Ashbury; Inner Richmond; Inner Sunset; Lakeshore; Marina; Mission; Nob Hill; Noe Valley; North Beach; Outer Mission; Outer Richmond; Outer Sunset; Pacific Heights; Parkside; Potrero Hill; Presidio; Presidio Heights; Russian Hill; Seacliff; South of Market; Visitacion Valley; Western Addition", "name": null, "cls": "footway", "length_m": 9.7684213241318503, "max_abs_grade": 0.0083163687897176309, "elev_min": 117.25690460205078, "elev_max": 117.30906677246094, "pass_elev_ft": 384.87227862976073, "neighborhood": "Inner Sunset" }, "geometry": { "type": "LineString", "coordinates": [ [ -122.464874898164339, 37.758600947463691 ], [ -122.464876, 37.7586009 ], [ -122.4649564, 37.7585974 ], [ -122.4649741, 37.7585972 ], [ -122.4649801, 37.7585958 ], [ -122.464984689949134, 37.758593671327944 ] ] } },
{ "type": "Feature", "properties": { "edge_id": 19171, "pairs_served": 29, "pass_elev_m": 112.73072052001953, "neighborhoods_separated": "Bayview; Bernal Heights; Castro/Upper Market; Chinatown; Crocker Amazon; Downtown/Civic Center; Excelsior; Financial District; Golden Gate Park; Haight Ashbury; Inner Richmond; Lakeshore; Marina; Mission; Nob Hill; Noe Valley; North Beach; Outer Mission; Outer Richmond; Outer Sunset; Pacific Heights; Parkside; Potrero Hill; Presidio; Presidio Heights; Russian Hill; Seacliff; South of Market; Visitacion Valley; Western Addition", "name": null, "cls": "footway", "length_m": 20.859300279085275, "max_abs_grade": 0.096857432326165754, "elev_min": 111.65554046630859, "elev_max": 112.73072052001953, "pass_elev_ft": 369.85145711090087, "neighborhood": "Excelsior" }, "geometry": { "type": "LineString", "coordinates": [ [ -122.420824104127846, 37.724441969737441 ], [ -122.4207006, 37.7244017 ], [ -122.420659, 37.724386799999984 ], [ -122.4206274, 37.7243805 ], [ -122.420603543798151, 37.724386370591745 ] ] } },
{ "type": "Feature", "properties": { "edge_id": 66097, "pairs_served": 28, "pass_elev_m": 101.30111694335938, "neighborhoods_separated": "Bayview; Bernal Heights; Castro/Upper Market; Chinatown; Crocker Amazon; Downtown/Civic Center; Financial District; Golden Gate Park; Haight Ashbury; Inner Richmond; Lakeshore; Marina; Mission; Nob Hill; Noe Valley; North Beach; Outer Mission; Outer Richmond; Outer Sunset; Pacific Heights; Parkside; Potrero Hill; Presidio; Presidio Heights; Russian Hill; Seacliff; South of Market; Visitacion Valley; Western Addition", "name": "Clay Street", "cls": "tertiary", "length_m": 7.5101861228801985, "max_abs_grade": 0.072610530462154863, "elev_min": 100.80975341796875, "elev_max": 101.30111694335938, "pass_elev_ft": 332.35275651245115, "neighborhood": "Nob Hill" }, "geometry": { "type": "LineString", "coordinates": [ [ -122.416216705190408, 37.793009599341886 ], [ -122.4162167, 37.7930096 ], [ -122.4161325, 37.79302040000001 ] ] } },
{ "type": "Feature", "properties": { "edge_id": 28678, "pairs_served": 27, "pass_elev_m": 99.935722351074219, "neighborhoods_separated": "Bayview; Bernal Heights; Castro/Upper Market; Chinatown; Crocker Amazon; Downtown/Civic Center; Financial District; Golden Gate Park; Haight Ashbury; Inner Richmond; Lakeshore; Marina; Mission; Noe Valley; North Beach; Outer Mission; Outer Richmond; Outer Sunset; Pacific Heights; Parkside; Potrero Hill; Presidio; Presidio Heights; Russian Hill; Seacliff; South of Market; Visitacion Valley; Western Addition", "name": "Clement Street", "cls": "residential", "length_m": 10.690112231440979, "max_abs_grade": 0.0091466131758226026, "elev_min": 99.851036071777344, "elev_max": 99.935722351074219, "pass_elev_ft": 327.87311531829835, "neighborhood": "Seacliff" }, "geometry": { "type": "LineString", "coordinates": [ [ -122.5009626, 37.7812905 ], [ -122.501083499999979, 37.7812822 ], [ -122.501083544646022, 37.781282195628798 ] ] } },
{ "type": "Feature", "properties": { "edge_id": 15961, "pairs_served": 26, "pass_elev_m": 95.0343017578125, "neighborhoods_separated": "Bayview; Bernal Heights; Castro/Upper Market; Chinatown; Crocker Amazon; Downtown/Civic Center; Financial District; Golden Gate Park; Haight Ashbury; Inner Richmond; Lakeshore; Marina; Mission; Noe Valley; North Beach; Outer Mission; Outer Richmond; Outer Sunset; Pacific Heights; Parkside; Potrero Hill; Presidio; Presidio Heights; Russian Hill; South of Market; Visitacion Valley; Western Addition", "name": "Munich Street", "cls": "residential", "length_m": 153.72801159773888, "max_abs_grade": 0.023960663526066874, "elev_min": 92.607627868652344, "elev_max": 95.0343017578125, "pass_elev_ft": 311.79233857910157, "neighborhood": "Crocker Amazon" }, "geometry": { "type": "LineString", "coordinates": [ [ -122.4352922, 37.71091340000001 ], [ -122.435460500000019, 37.7108726 ], [ -122.4355648, 37.7108487 ], [ -122.4356247, 37.710834900000016 ], [ -122.4358002, 37.710803 ], [ -122.435963, 37.7107764 ], [ -122.436135900000011, 37.7107577 ], [ -122.4363068, 37.7107448 ], [ -122.436474, 37.7107378 ], [ -122.436643800000013, 37.7107384 ], [ -122.4368134, 37.7107472 ], [ -122.4370094, 37.710767 ] ] } },
{ "type": "Feature", "properties": { "edge_id": 45198, "pairs_served": 25, "pass_elev_m": 89.876312255859375, "neighborhoods_separated": "Bayview; Bernal Heights; Castro/Upper Market; Chinatown; Downtown/Civic Center; Financial District; Golden Gate Park; Haight Ashbury; Inner Richmond; Lakeshore; Marina; Mission; Noe Valley; North Beach; Outer Mission; Outer Richmond; Outer Sunset; Pacific Heights; Parkside; Potrero Hill; Presidio; Presidio Heights; Russian Hill; South of Market; Visitacion Valley; Western Addition", "name": "Waller Street", "cls": "residential", "length_m": 64.283576760710289, "max_abs_grade": 0.017915979118596159, "elev_min": 88.939376831054688, "elev_max": 89.876312255859375, "pass_elev_ft": 294.86980030151369, "neighborhood": "Haight Ashbury" }, "geometry": { "type": "LineString", "coordinates": [ [ -122.445941500000018, 37.7691898 ], [ -122.446662198587418, 37.769098200179535 ] ] } },
{ "type": "Feature", "properties": { "edge_id": 20055, "pairs_served": 24, "pass_elev_m": 81.249771118164062, "neighborhoods_separated": "Bayview; Bernal Heights; Castro/Upper Market; Chinatown; Downtown/Civic Center; Financial District; Golden Gate Park; Inner Richmond; Lakeshore; Marina; Mission; Noe Valley; North Beach; Outer Mission; Outer Richmond; Outer Sunset; Pacific Heights; Parkside; Potrero Hill; Presidio; Presidio Heights; Russian Hill; South of Market; Visitacion Valley; Western Addition", "name": "Eugenia Avenue", "cls": "residential", "length_m": 54.9417901537905, "max_abs_grade": 0.044233225708519418, "elev_min": 79.396537780761719, "elev_max": 81.249771118164062, "pass_elev_ft": 266.56749907531736, "neighborhood": "Bernal Heights" }, "geometry": { "type": "LineString", "coordinates": [ [ -122.4176493, 37.7405031 ], [ -122.4170269, 37.7404728 ] ] } },
{ "type": "Feature", "properties": { "edge_id": 50152, "pairs_served": 16, "pass_elev_m": 75.24993896484375, "neighborhoods_separated": "Bayview; Castro/Upper Market; Chinatown; Downtown/Civic Center; Financial District; Marina; Mission; Noe Valley; North Beach; Outer Mission; Pacific Heights; Potrero Hill; Presidio; Russian Hill; South of Market; Visitacion Valley; Western Addition", "name": "Fillmore Street", "cls": "tertiary", "length_m": 8.239489373611443, "max_abs_grade": 0.036725217486516651, "elev_min": 74.9832763671875, "elev_max": 75.24993896484375, "pass_elev_ft": 246.88300975341798, "neighborhood": "Pacific Heights" }, "geometry": { "type": "LineString", "coordinates": [ [ -122.4345767, 37.7924773 ], [ -122.4345617, 37.792404 ], [ -122.434561699637058, 37.792403998198715 ] ] } },
{ "type": "Feature", "properties": { "edge_id": 38237, "pairs_served": 15, "pass_elev_m": 72.783599853515625, "neighborhoods_separated": "Bayview; Castro/Upper Market; Chinatown; Downtown/Civic Center; Financial District; Marina; Mission; Noe Valley; North Beach; Outer Mission; Potrero Hill; Presidio; Russian Hill; South of Market; Visitacion Valley; Western Addition", "name": "Main Drive", "cls": "unclassified", "length_m": 123.8184794782309, "max_abs_grade": 0.15186040842451132, "elev_min": 58.935405731201172, "elev_max": 72.783599853515625, "pass_elev_ft": 238.79134574340821, "neighborhood": "Presidio" }, "geometry": { "type": "LineString", "coordinates": [ [ -122.4640096, 37.7995355 ], [ -122.4648434, 37.7986368 ] ] } },
{ "type": "Feature", "properties": { "edge_id": 53349, "pairs_served": 14, "pass_elev_m": 66.79730224609375, "neighborhoods_separated": "Bayview; Castro/Upper Market; Chinatown; Downtown/Civic Center; Financial District; Marina; Mission; Noe Valley; North Beach; Outer Mission; Potrero Hill; Russian Hill; South of Market; Visitacion Valley; Western Addition", "name": "Castro Street", "cls": "tertiary", "length_m": 8.6012669855153412, "max_abs_grade": 0.018320268071628575, "elev_min": 66.662689208984375, "elev_max": 66.79730224609375, "pass_elev_ft": 219.15126110107423, "neighborhood": "Noe Valley" }, "geometry": { "type": "LineString", "coordinates": [ [ -122.4339554, 37.749698399999986 ], [ -122.433962800000018, 37.7497757 ], [ -122.433962800028596, 37.749775700293284 ] ] } },
{ "type": "Feature", "properties": { "edge_id": 65861, "pairs_served": 13, "pass_elev_m": 59.135513305664062, "neighborhoods_separated": "Bayview; Castro/Upper Market; Chinatown; Downtown/Civic Center; Financial District; Marina; Mission; North Beach; Outer Mission; Potrero Hill; Russian Hill; South of Market; Visitacion Valley; Western Addition", "name": "Leavenworth Street", "cls": "residential", "length_m": 9.006838654468293, "max_abs_grade": 0.0054805224920071302, "elev_min": 59.110832214355469, "elev_max": 59.135513305664062, "pass_elev_ft": 194.01415747375489, "neighborhood": "Russian Hill" }, "geometry": { "type": "LineString", "coordinates": [ [ -122.417781713145132, 37.801204965918949 ], [ -122.417788500000015, 37.801239 ], [ -122.4177988, 37.801285 ] ] } },
{ "type": "Feature", "properties": { "edge_id": 14304, "pairs_served": 12, "pass_elev_m": 57.774501800537109, "neighborhoods_separated": "Bayview; Castro/Upper Market; Chinatown; Downtown/Civic Center; Financial District; Marina; Mission; North Beach; Outer Mission; Potrero Hill; South of Market; Visitacion Valley; Western Addition", "name": "San Jose Avenue", "cls": "secondary", "length_m": 160.92690959350028, "max_abs_grade": 0.01763738653466462, "elev_min": 55.061447143554688, "elev_max": 57.774501800537109, "pass_elev_ft": 189.54889648727416, "neighborhood": "Outer Mission" }, "geometry": { "type": "LineString", "coordinates": [ [ -122.443107368962927, 37.724938217973886 ], [ -122.44365, 37.7242928 ], [ -122.4441209, 37.7237317 ] ] } },
{ "type": "Feature", "properties": { "edge_id": 20840, "pairs_served": 11, "pass_elev_m": 55.938312530517578, "neighborhoods_separated": "Bayview; Castro/Upper Market; Chinatown; Downtown/Civic Center; Financial District; Marina; Mission; North Beach; Potrero Hill; South of Market; Visitacion Valley; Western Addition", "name": "Raymond Avenue", "cls": "residential", "length_m": 106.25174784013825, "max_abs_grade": 0.11056374239074544, "elev_min": 48.926239013671875, "elev_max": 55.938312530517578, "pass_elev_ft": 183.52465328262329, "neighborhood": "Visitacion Valley" }, "geometry": { "type": "LineString", "coordinates": [ [ -122.4113282, 37.7143841 ], [ -122.41246790000001, 37.7146955 ], [ -122.412468153655254, 37.714695568490072 ] ] } },
{ "type": "Feature", "properties": { "edge_id": 51185, "pairs_served": 10, "pass_elev_m": 45.9276123046875, "neighborhoods_separated": "Bayview; Castro/Upper Market; Chinatown; Downtown/Civic Center; Financial District; Marina; Mission; North Beach; Potrero Hill; South of Market; Western Addition", "name": "Market Street", "cls": "primary", "length_m": 12.220462122231021, "max_abs_grade": 0.014263369450627094, "elev_min": 45.764987945556641, "elev_max": 45.9276123046875, "pass_elev_ft": 150.68114755371093, "neighborhood": "Castro/Upper Market" }, "geometry": { "type": "LineString", "coordinates": [ [ -122.435090538107048, 37.762774828407814 ], [ -122.435202700000019, 37.76271 ] ] } },
{ "type": "Feature", "properties": { "edge_id": 69859, "pairs_served": 9, "pass_elev_m": 41.767848968505859, "neighborhoods_separated": "Bayview; Chinatown; Downtown/Civic Center; Financial District; Marina; Mission; North Beach; Potrero Hill; South of Market; Western Addition", "name": "Grant Avenue", "cls": "residential", "length_m": 43.43505977888627, "max_abs_grade": 0.12657670546612307, "elev_min": 37.258708953857422, "elev_max": 41.767848968505859, "pass_elev_ft": 137.03362960983276, "neighborhood": "North Beach" }, "geometry": { "type": "LineString", "coordinates": [ [ -122.408256205010559, 37.803919124770928 ], [ -122.408334390722388, 37.804305654133898 ] ] } },
{ "type": "Feature", "properties": { "edge_id": 55000, "pairs_served": 8, "pass_elev_m": 33.919204711914062, "neighborhoods_separated": "Bayview; Chinatown; Downtown/Civic Center; Financial District; Marina; Mission; Potrero Hill; South of Market; Western Addition", "name": "Turk Street", "cls": "secondary", "length_m": 8.0364540598580732, "max_abs_grade": 0.0057407094693819136, "elev_min": 33.877490997314453, "elev_max": 33.919204711914062, "pass_elev_ft": 111.28348358703613, "neighborhood": "Western Addition" }, "geometry": { "type": "LineString", "coordinates": [ [ -122.432067297637573, 37.780513200361604 ], [ -122.432067299999986, 37.7805132 ], [ -122.4321574, 37.7805017 ] ] } },
{ "type": "Feature", "properties": { "edge_id": 73427, "pairs_served": 7, "pass_elev_m": 30.168310165405273, "neighborhoods_separated": "Bayview; Chinatown; Downtown/Civic Center; Financial District; Marina; Mission; Potrero Hill; South of Market", "name": "Clay Street", "cls": "tertiary", "length_m": 41.936251929971363, "max_abs_grade": 0.12901501301441742, "elev_min": 26.0057373046875, "elev_max": 30.168310165405273, "pass_elev_ft": 98.977398723068234, "neighborhood": "Chinatown" }, "geometry": { "type": "LineString", "coordinates": [ [ -122.406841, 37.7942006 ], [ -122.406370453517567, 37.794259193335897 ] ] } },
{ "type": "Feature", "properties": { "edge_id": 46889, "pairs_served": 6, "pass_elev_m": 76.053176879882812, "neighborhoods_separated": "Golden Gate Park; Inner Richmond; Lakeshore; Outer Richmond; Outer Sunset; Parkside; Presidio Heights", "name": null, "cls": "footway", "length_m": 7.8790686273103328, "max_abs_grade": 0.016850560153186912, "elev_min": 75.932075500488281, "elev_max": 76.053176879882812, "pass_elev_ft": 249.51830483459472, "neighborhood": "Presidio Heights" }, "geometry": { "type": "LineString", "coordinates": [ [ -122.453502199999988, 37.7863148 ], [ -122.453413324533983, 37.786323040696253 ] ] } },
{ "type": "Feature", "properties": { "edge_id": 25387, "pairs_served": 6, "pass_elev_m": 29.665317535400391, "neighborhoods_separated": "Bayview; Downtown/Civic Center; Financial District; Marina; Mission; Potrero Hill; South of Market", "name": "Lane Street", "cls": "residential", "length_m": 9.1460846336782797, "max_abs_grade": 0.051751940619569746, "elev_min": 29.196582794189453, "elev_max": 29.665317535400391, "pass_elev_ft": 97.327160382843019, "neighborhood": "Bayview" }, "geometry": { "type": "LineString", "coordinates": [ [ -122.3896164, 37.7322986 ], [ -122.3896765, 37.7322314 ], [ -122.389676504833076, 37.73223139461534 ] ] } },
{ "type": "Feature", "properties": { "edge_id": 69484, "pairs_served": 5, "pass_elev_m": 24.648279190063477, "neighborhoods_separated": "Downtown/Civic Center; Financial District; Marina; Mission; Potrero Hill; South of Market", "name": "McDowell Road Southwest", "cls": "cycleway", "length_m": 56.51372276555837, "max_abs_grade": 0.056644426642344932, "elev_min": 23.840007781982422, "elev_max": 24.648279190063477, "pass_elev_ft": 80.86706029792785, "neighborhood": "Marina" }, "geometry": { "type": "LineString", "coordinates": [ [ -122.429560953599619, 37.806988643410129 ], [ -122.4295557, 37.8070016 ], [ -122.4294786, 37.8071994 ], [ -122.429384700000014, 37.8072955 ], [ -122.4293451, 37.8073292 ], [ -122.429242200000019, 37.8074029 ], [ -122.429232401780723, 37.8074107447041 ] ] } },
{ "type": "Feature", "properties": { "edge_id": 29077, "pairs_served": 5, "pass_elev_m": 73.713401794433594, "neighborhoods_separated": "Golden Gate Park; Inner Richmond; Lakeshore; Outer Richmond; Outer Sunset; Parkside", "name": "33rd Avenue", "cls": "residential", "length_m": 9.9576225541343479, "max_abs_grade": 0.015302273926180244, "elev_min": 73.569435119628906, "elev_max": 73.713401794433594, "pass_elev_ft": 241.84187714324952, "neighborhood": "Outer Richmond" }, "geometry": { "type": "LineString", "coordinates": [ [ -122.493183, 37.7777828 ], [ -122.493176500011472, 37.77769320015792 ] ] } },
{ "type": "Feature", "properties": { "edge_id": 32794, "pairs_served": 4, "pass_elev_m": 71.680801391601562, "neighborhoods_separated": "Golden Gate Park; Inner Richmond; Lakeshore; Outer Sunset; Parkside", "name": "Transverse Drive", "cls": "unclassified", "length_m": 55.294760373512339, "max_abs_grade": 0.046547302932903947, "elev_min": 69.663055419921875, "elev_max": 71.680801391601562, "pass_elev_ft": 235.17324043762207, "neighborhood": "Golden Gate Park" }, "geometry": { "type": "LineString", "coordinates": [ [ -122.479839967915112, 37.770397404892691 ], [ -122.479836800000015, 37.77039340000001 ], [ -122.4798254, 37.7703773 ], [ -122.4797443, 37.7702588 ], [ -122.479657799999984, 37.7701295 ], [ -122.479541203772797, 37.769959097327664 ] ] } },
{ "type": "Feature", "properties": { "edge_id": 66258, "pairs_served": 4, "pass_elev_m": 22.190353393554688, "neighborhoods_separated": "Downtown/Civic Center; Financial District; Mission; Potrero Hill; South of Market", "name": "Hyde Street", "cls": "tertiary", "length_m": 21.395257392236665, "max_abs_grade": 0.022488525233565503, "elev_min": 21.874000549316406, "elev_max": 22.190353393554688, "pass_elev_ft": 72.802999027709959, "neighborhood": "Downtown/Civic Center" }, "geometry": { "type": "LineString", "coordinates": [ [ -122.415768499244805, 37.782855496260929 ], [ -122.415750100000011, 37.7827644 ], [ -122.415741, 37.7827192 ], [ -122.415729902244252, 37.782665110938233 ] ] } },
{ "type": "Feature", "properties": { "edge_id": 78713, "pairs_served": 3, "pass_elev_m": 15.860441207885742, "neighborhoods_separated": "Financial District; Mission; Potrero Hill; South of Market", "name": "Mississippi Street", "cls": "residential", "length_m": 9.0771490476790149, "max_abs_grade": 0.014478969027475181, "elev_min": 15.776854515075684, "elev_max": 15.860441207885742, "pass_elev_ft": 52.035569932479859, "neighborhood": "Potrero Hill" }, "geometry": { "type": "LineString", "coordinates": [ [ -122.394124882501302, 37.757672570603013 ], [ -122.394107, 37.757592 ] ] } },
{ "type": "Feature", "properties": { "edge_id": 30260, "pairs_served": 3, "pass_elev_m": 66.676986694335938, "neighborhoods_separated": "Inner Richmond; Lakeshore; Outer Sunset; Parkside", "name": "Moraga Street", "cls": "residential", "length_m": 9.5462911479255812, "max_abs_grade": 0.07213098246036069, "elev_min": 66.015907287597656, "elev_max": 66.676986694335938, "pass_elev_ft": 218.75652502624513, "neighborhood": "Outer Sunset" }, "geometry": { "type": "LineString", "coordinates": [ [ -122.493768499999987, 37.7553545 ], [ -122.4938767, 37.7553497 ], [ -122.49387670054459, 37.75534969997593 ] ] } },
{ "type": "Feature", "properties": { "edge_id": 2457, "pairs_served": 2, "pass_elev_m": 60.393928527832031, "neighborhoods_separated": "Inner Richmond; Lakeshore; Parkside", "name": "Ulloa Street", "cls": "residential", "length_m": 9.7071898245039296, "max_abs_grade": 0.030377082554339314, "elev_min": 60.109466552734375, "elev_max": 60.393928527832031, "pass_elev_ft": 198.14281647125244, "neighborhood": "Parkside" }, "geometry": { "type": "LineString", "coordinates": [ [ -122.4873653, 37.740670099999988 ], [ -122.4874753, 37.7406652 ], [ -122.487475301063569, 37.740665199953057 ] ] } },
{ "type": "Feature", "properties": { "edge_id": 61824, "pairs_served": 2, "pass_elev_m": 13.355928421020508, "neighborhoods_separated": "Financial District; Mission; South of Market", "name": null, "cls": "footway", "length_m": 6.2155145960818254, "max_abs_grade": 0.014909843044956536, "elev_min": 13.267882347106934, "elev_max": 13.355928421020508, "pass_elev_ft": 43.818664200820919, "neighborhood": "Mission" }, "geometry": { "type": "LineString", "coordinates": [ [ -122.415793110238681, 37.758770139576256 ], [ -122.415746200000015, 37.7587717 ], [ -122.4157254, 37.7587776 ], [ -122.415723881553831, 37.758777682420885 ] ] } },
{ "type": "Feature", "properties": { "edge_id": 37669, "pairs_served": 1, "pass_elev_m": 55.822719573974609, "neighborhoods_separated": "Inner Richmond; Lakeshore", "name": "5th Avenue", "cls": "residential", "length_m": 30.005461176798359, "max_abs_grade": 0.016329403828586202, "elev_min": 55.364856719970703, "elev_max": 55.822719573974609, "pass_elev_ft": 183.14541128707884, "neighborhood": "Inner Richmond" }, "geometry": { "type": "LineString", "coordinates": [ [ -122.463172899948574, 37.780265599283979 ], [ -122.4631535, 37.7799956 ], [ -122.463153499933469, 37.779995599074965 ] ] } },
{ "type": "Feature", "properties": { "edge_id": 70905, "pairs_served": 1, "pass_elev_m": 4.7596149444580078, "neighborhoods_separated": "Financial District; South of Market", "name": null, "cls": "footway", "length_m": 2.9423608973008233, "max_abs_grade": 0.011652717136060836, "elev_min": 4.7343626022338867, "elev_max": 4.7596149444580078, "pass_elev_ft": 15.615535094375611, "neighborhood": "Financial District" }, "geometry": { "type": "LineString", "coordinates": [ [ -122.399096143821382, 37.79118875585965 ], [ -122.3990724, 37.7911701 ], [ -122.399072396808819, 37.791170097508264 ] ] } }
]
}
